[{"OBJECT_NAME":"STARLINK-36878","OBJECT_ID":"2026-035W","EPOCH":"2026-03-04T01:22:54.111072","MEAN_MOTION":16.01594199,"ECCENTRICITY":8.93e-5,"INCLINATION":97.2752,"RA_OF_ASC_NODE":354.9769,"ARG_OF_PERICENTER":43.9241,"MEAN_ANOMALY":316.2109,"EPHEMERIS_TYPE":0,"CLASSIFICATION_TYPE":"U","NORAD_CAT_ID":67899,"ELEMENT_SET_NO":999,"REV_AT_EPOCH":294,"BSTAR":-0.00056438,"MEAN_MOTION_DOT":-0.00314008,"MEAN_MOTION_DDOT":3.8718e-5},{"OBJECT_NAME":"STARLINK-36361","OBJECT_ID":"2026-035X","EPOCH":"2026-03-04T02:51:55.744416","MEAN_MOTION":16.01631653,"ECCENTRICITY":0.0001406,"INCLINATION":97.2749,"RA_OF_ASC_NODE":355.0458,"ARG_OF_PERICENTER":179.9431,"MEAN_ANOMALY":180.1849,"EPHEMERIS_TYPE":0,"CLASSIFICATION_TYPE":"U","NORAD_CAT_ID":67900,"ELEMENT_SET_NO":999,"REV_AT_EPOCH":295,"BSTAR":-0.00040103,"MEAN_MOTION_DOT":-0.00223885,"MEAN_MOTION_DDOT":2.1088e-5},{"OBJECT_NAME":"STARLINK-36336","OBJECT_ID":"2026-035Y","EPOCH":"2026-03-04T00:00:00.998784","MEAN_MOTION":16.01848044,"ECCENTRICITY":9.14e-5,"INCLINATION":97.2748,"RA_OF_ASC_NODE":354.9209,"ARG_OF_PERICENTER":125.1232,"MEAN_ANOMALY":278.6701,"EPHEMERIS_TYPE":0,"CLASSIFICATION_TYPE":"U","NORAD_CAT_ID":67901,"ELEMENT_SET_NO":999,"REV_AT_EPOCH":289,"BSTAR":-0.0018244,"MEAN_MOTION_DOT":-0.01024078,"MEAN_MOTION_DDOT":0.00034982},{"OBJECT_NAME":"STARLINK-36876","OBJECT_ID":"2026-035Z","EPOCH":"2026-03-04T00:00:00.998784","MEAN_MOTION":16.01665708,"ECCENTRICITY":0.0001092,"INCLINATION":97.275,"RA_OF_ASC_NODE":354.9178,"ARG_OF_PERICENTER":118.7727,"MEAN_ANOMALY":276.8029,"EPHEMERIS_TYPE":0,"CLASSIFICATION_TYPE":"U","NORAD_CAT_ID":67902,"ELEMENT_SET_NO":999,"REV_AT_EPOCH":284,"BSTAR":-0.0019706,"MEAN_MOTION_DOT":-0.01093955,"MEAN_MOTION_DDOT":0.00039445},{"OBJECT_NAME":"STARLINK-36257","OBJECT_ID":"2026-035AA","EPOCH":"2026-03-04T00:00:00.998784","MEAN_MOTION":16.01753494,"ECCENTRICITY":8.39e-5,"INCLINATION":97.2745,"RA_OF_ASC_NODE":354.9184,"ARG_OF_PERICENTER":104.2,"MEAN_ANOMALY":294.8694,"EPHEMERIS_TYPE":0,"CLASSIFICATION_TYPE":"U","NORAD_CAT_ID":67903,"ELEMENT_SET_NO":999,"REV_AT_EPOCH":289,"BSTAR":-0.0019223,"MEAN_MOTION_DOT":-0.01072704,"MEAN_MOTION_DDOT":0.00038077},{"OBJECT_NAME":"STARLINK-36301","OBJECT_ID":"2026-037A","EPOCH":"2026-03-03T14:00:03.000384","MEAN_MOTION":15.97346447,"ECCENTRICITY":0.0001381,"INCLINATION":43.0002,"RA_OF_ASC_NODE":236.3782,"ARG_OF_PERICENTER":264.0887,"MEAN_ANOMALY":318.0085,"EPHEMERIS_TYPE":0,"CLASSIFICATION_TYPE":"U","NORAD_CAT_ID":67932,"ELEMENT_SET_NO":999,"REV_AT_EPOCH":212,"BSTAR":-0.0029675,"MEAN_MOTION_DOT":-0.01357719,"MEAN_MOTION_DDOT":0.00055759},{"OBJECT_NAME":"STARLINK-36852","OBJECT_ID":"2026-037B","EPOCH":"2026-03-03T14:00:03.000384","MEAN_MOTION":15.97460287,"ECCENTRICITY":0.0001249,"INCLINATION":43.0004,"RA_OF_ASC_NODE":236.3747,"ARG_OF_PERICENTER":264.222,"MEAN_ANOMALY":319.2231,"EPHEMERIS_TYPE":0,"CLASSIFICATION_TYPE":"U","NORAD_CAT_ID":67933,"ELEMENT_SET_NO":999,"REV_AT_EPOCH":221,"BSTAR":-0.0029446,"MEAN_MOTION_DOT":-0.01355793,"MEAN_MOTION_DDOT":0.0005568},{"OBJECT_NAME":"STARLINK-36861","OBJECT_ID":"2026-037C","EPOCH":"2026-03-03T14:00:03.000384","MEAN_MOTION":15.97597259,"ECCENTRICITY":0.0001361,"INCLINATION":43.0003,"RA_OF_ASC_NODE":236.3701,"ARG_OF_PERICENTER":268.5302,"MEAN_ANOMALY":316.8494,"EPHEMERIS_TYPE":0,"CLASSIFICATION_TYPE":"U","NORAD_CAT_ID":67934,"ELEMENT_SET_NO":999,"REV_AT_EPOCH":221,"BSTAR":-0.0029234,"MEAN_MOTION_DOT":-0.01356323,"MEAN_MOTION_DDOT":0.00055799},{"OBJECT_NAME":"STARLINK-36860","OBJECT_ID":"2026-037D","EPOCH":"2026-03-03T14:00:03.000384","MEAN_MOTION":15.97742292,"ECCENTRICITY":0.0001512,"INCLINATION":43.0003,"RA_OF_ASC_NODE":236.3654,"ARG_OF_PERICENTER":272.0924,"MEAN_ANOMALY":315.3019,"EPHEMERIS_TYPE":0,"CLASSIFICATION_TYPE":"U","NORAD_CAT_ID":67935,"ELEMENT_SET_NO":999,"REV_AT_EPOCH":221,"BSTAR":-0.0029201,"MEAN_MOTION_DOT":-0.01365707,"MEAN_MOTION_DDOT":0.00056593},{"OBJECT_NAME":"STARLINK-36848","OBJECT_ID":"2026-037E","EPOCH":"2026-03-03T14:00:03.000384","MEAN_MOTION":15.98009049,"ECCENTRICITY":0.0001546,"INCLINATION":43.0003,"RA_OF_ASC_NODE":236.3553,"ARG_OF_PERICENTER":270.1059,"MEAN_ANOMALY":321.0753,"EPHEMERIS_TYPE":0,"CLASSIFICATION_TYPE":"U","NORAD_CAT_ID":67936,"ELEMENT_SET_NO":999,"REV_AT_EPOCH":221,"BSTAR":-0.0028636,"MEAN_MOTION_DOT":-0.01359471,"MEAN_MOTION_DDOT":0.00056277},{"OBJECT_NAME":"STARLINK-36370","OBJECT_ID":"2026-037F","EPOCH":"2026-03-03T14:00:03.000384","MEAN_MOTION":15.97879454,"ECCENTRICITY":0.0001662,"INCLINATION":43.0005,"RA_OF_ASC_NODE":236.3601,"ARG_OF_PERICENTER":269.99,"MEAN_ANOMALY":319.4677,"EPHEMERIS_TYPE":0,"CLASSIFICATION_TYPE":"U","NORAD_CAT_ID":67937,"ELEMENT_SET_NO":999,"REV_AT_EPOCH":221,"BSTAR":-0.0028804,"MEAN_MOTION_DOT":-0.01357617,"MEAN_MOTION_DDOT":0.00056061},{"OBJECT_NAME":"STARLINK-36371","OBJECT_ID":"2026-037G","EPOCH":"2026-03-03T14:00:03.000384","MEAN_MOTION":15.98125376,"ECCENTRICITY":0.0001542,"INCLINATION":43.0003,"RA_OF_ASC_NODE":236.3511,"ARG_OF_PERICENTER":270.2563,"MEAN_ANOMALY":322.4725,"EPHEMERIS_TYPE":0,"CLASSIFICATION_TYPE":"U","NORAD_CAT_ID":67938,"ELEMENT_SET_NO":999,"REV_AT_EPOCH":221,"BSTAR":-0.0028331,"MEAN_MOTION_DOT":-0.01353827,"MEAN_MOTION_DDOT":0.00055918},{"OBJECT_NAME":"STARLINK-36246","OBJECT_ID":"2026-037H","EPOCH":"2026-03-03T14:00:03.000384","MEAN_MOTION":15.98239336,"ECCENTRICITY":0.0001674,"INCLINATION":43.0004,"RA_OF_ASC_NODE":236.3476,"ARG_OF_PERICENTER":270.5425,"MEAN_ANOMALY":323.7249,"EPHEMERIS_TYPE":0,"CLASSIFICATION_TYPE":"U","NORAD_CAT_ID":67939,"ELEMENT_SET_NO":999,"REV_AT_EPOCH":212,"BSTAR":-0.0027979,"MEAN_MOTION_DOT":-0.01345738,"MEAN_MOTION_DDOT":0.00055373},{"OBJECT_NAME":"STARLINK-36907","OBJECT_ID":"2026-037J","EPOCH":"2026-03-03T14:00:03.000384","MEAN_MOTION":15.98618727,"ECCENTRICITY":0.0001614,"INCLINATION":43.0003,"RA_OF_ASC_NODE":236.3336,"ARG_OF_PERICENTER":266.6299,"MEAN_ANOMALY":332.8743,"EPHEMERIS_TYPE":0,"CLASSIFICATION_TYPE":"U","NORAD_CAT_ID":67940,"ELEMENT_SET_NO":999,"REV_AT_EPOCH":221,"BSTAR":-0.0027232,"MEAN_MOTION_DOT":-0.01338137,"MEAN_MOTION_DDOT":0.00055021},{"OBJECT_NAME":"STARLINK-36927","OBJECT_ID":"2026-037K","EPOCH":"2026-03-03T14:00:03.000384","MEAN_MOTION":15.98861766,"ECCENTRICITY":0.0001606,"INCLINATION":43.0003,"RA_OF_ASC_NODE":236.3254,"ARG_OF_PERICENTER":268.0662,"MEAN_ANOMALY":334.7143,"EPHEMERIS_TYPE":0,"CLASSIFICATION_TYPE":"U","NORAD_CAT_ID":67941,"ELEMENT_SET_NO":999,"REV_AT_EPOCH":221,"BSTAR":-0.0026799,"MEAN_MOTION_DOT":-0.01335065,"MEAN_MOTION_DDOT":0.0005493},{"OBJECT_NAME":"STARLINK-36914","OBJECT_ID":"2026-037L","EPOCH":"2026-03-03T14:00:03.000384","MEAN_MOTION":15.98390757,"ECCENTRICITY":0.0001583,"INCLINATION":43.0003,"RA_OF_ASC_NODE":236.3419,"ARG_OF_PERICENTER":269.387,"MEAN_ANOMALY":327.0234,"EPHEMERIS_TYPE":0,"CLASSIFICATION_TYPE":"U","NORAD_CAT_ID":67942,"ELEMENT_SET_NO":999,"REV_AT_EPOCH":221,"BSTAR":-0.0027881,"MEAN_MOTION_DOT":-0.01352377,"MEAN_MOTION_DDOT":0.00055964}]
